{
  "type": "FeatureCollection",
  "features": [
    {
      "type": "Feature",
      "properties": {
        "norad_id": 35663,
        "name": "COSMOS 2251 DEB",
        "group": "cosmos-2251-debris",
        "lat": 56.135344496833696,
        "lon": 164.08926663167978,
        "alt_km": 674.5228844068915,
        "timestamp": "2025-12-05T09:41:19.528871+00:00",
        "meta_object_name": "COSMOS 2251 DEB",
        "meta_object_id": "1993-036APE",
        "meta_epoch": "2025-11-30T11:26:45.384288",
        "meta_mean_motion": 14.65332391,
        "meta_eccentricity": 0.00074535,
        "meta_inclination": 74.0171,
        "meta_ra_of_asc_node": 148.2949,
        "meta_arg_of_pericenter": 219.2944,
        "meta_mean_anomaly": 140.7685,
        "meta_ephemeris_type": 0,
        "meta_classification_type": "U",
        "meta_norad_cat_id": 35663,
        "meta_element_set_no": 999,
        "meta_rev_at_epoch": 73202,
        "meta_bstar": 0.0015821861,
        "meta_mean_motion_dot": 8.525e-05,
        "meta_mean_motion_ddot": 0,
        "tle_line1": "1 35663U 93036APE 25334.47691417  .00008525  00000+0  15822-2 0  9999",
        "tle_line2": "2 35663  74.0171 148.2949 0007453 219.2944 140.7685 14.65332391732024"
      },
      "geometry": {
        "type": "Point",
        "coordinates": [
          164.08926663167978,
          56.135344496833696
        ]
      }
    },
    {
      "type": "Feature",
      "properties": {
        "norad_id": 35667,
        "name": "COSMOS 2251 DEB",
        "group": "cosmos-2251-debris",
        "lat": -69.22166658217076,
        "lon": 22.985889415806646,
        "alt_km": 689.5154017345576,
        "timestamp": "2025-12-05T09:41:19.528881+00:00",
        "meta_object_name": "COSMOS 2251 DEB",
        "meta_object_id": "1993-036APJ",
        "meta_epoch": "2025-12-03T05:32:00.225024",
        "meta_mean_motion": 14.59863315,
        "meta_eccentricity": 0.0020461,
        "meta_inclination": 74.0542,
        "meta_ra_of_asc_node": 158.2289,
        "meta_arg_of_pericenter": 220.1527,
        "meta_mean_anomaly": 139.8128,
        "meta_ephemeris_type": 0,
        "meta_classification_type": "U",
        "meta_norad_cat_id": 35667,
        "meta_element_set_no": 999,
        "meta_rev_at_epoch": 70664,
        "meta_bstar": 0.0013542,
        "meta_mean_motion_dot": 6.475e-05,
        "meta_mean_motion_ddot": 0,
        "tle_line1": "1 35667U 93036APJ 25337.23055816  .00006475  00000+0  13542-2 0  9996",
        "tle_line2": "2 35667  74.0542 158.2289 0020461 220.1527 139.8128 14.59863315706648"
      },
      "geometry": {
        "type": "Point",
        "coordinates": [
          22.985889415806646,
          -69.22166658217076
        ]
      }
    },
    {
      "type": "Feature",
      "properties": {
        "norad_id": 35668,
        "name": "COSMOS 2251 DEB",
        "group": "cosmos-2251-debris",
        "lat": -72.85224617007873,
        "lon": 122.59215025667349,
        "alt_km": 674.5142450603853,
        "timestamp": "2025-12-05T09:41:19.528891+00:00",
        "meta_object_name": "COSMOS 2251 DEB",
        "meta_object_id": "1993-036APK",
        "meta_epoch": "2025-12-04T09:31:18.055200",
        "meta_mean_motion": 14.63947541,
        "meta_eccentricity": 0.0082977,
        "meta_inclination": 74.0461,
        "meta_ra_of_asc_node": 236.5342,
        "meta_arg_of_pericenter": 343.6031,
        "meta_mean_anomaly": 16.2454,
        "meta_ephemeris_type": 0,
        "meta_classification_type": "U",
        "meta_norad_cat_id": 35668,
        "meta_element_set_no": 999,
        "meta_rev_at_epoch": 87525,
        "meta_bstar": 0.00065787,
        "meta_mean_motion_dot": 3.589e-05,
        "meta_mean_motion_ddot": 0,
        "tle_line1": "1 35668U 93036APK 25338.39673675  .00003589  00000+0  65787-3 0  9996",
        "tle_line2": "2 35668  74.0461 236.5342 0082977 343.6031  16.2454 14.63947541875253"
      },
      "geometry": {
        "type": "Point",
        "coordinates": [
          122.59215025667349,
          -72.85224617007873
        ]
      }
    },
    {
      "type": "Feature",
      "properties": {
        "norad_id": 35669,
        "name": "COSMOS 2251 DEB",
        "group": "cosmos-2251-debris",
        "lat": 2.5385558477872685,
        "lon": -9.421145950642684,
        "alt_km": 1123.88009154464,
        "timestamp": "2025-12-05T09:41:19.528901+00:00",
        "meta_object_name": "COSMOS 2251 DEB",
        "meta_object_id": "1993-036APL",
        "meta_epoch": "2025-12-03T21:23:42.149184",
        "meta_mean_motion": 13.57134195,
        "meta_eccentricity": 0.0387239,
        "meta_inclination": 73.852,
        "meta_ra_of_asc_node": 173.7821,
        "meta_arg_of_pericenter": 287.3475,
        "meta_mean_anomaly": 68.5633,
        "meta_ephemeris_type": 0,
        "meta_classification_type": "U",
        "meta_norad_cat_id": 35669,
        "meta_element_set_no": 999,
        "meta_rev_at_epoch": 60669,
        "meta_bstar": 0.0017031,
        "meta_mean_motion_dot": 1.95e-05,
        "meta_mean_motion_ddot": 0,
        "tle_line1": "1 35669U 93036APL 25337.89146006  .00001950  00000+0  17031-2 0  9992",
        "tle_line2": "2 35669  73.8520 173.7821 0387239 287.3475  68.5633 13.57134195606690"
      },
      "geometry": {
        "type": "Point",
        "coordinates": [
          -9.421145950642684,
          2.5385558477872685
        ]
      }
    },
    {
      "type": "Feature",
      "properties": {
        "norad_id": 35670,
        "name": "COSMOS 2251 DEB",
        "group": "cosmos-2251-debris",
        "lat": 50.990933972169515,
        "lon": -121.5135066994202,
        "alt_km": 578.63454828052,
        "timestamp": "2025-12-05T09:41:19.528912+00:00",
        "meta_object_name": "COSMOS 2251 DEB",
        "meta_object_id": "1993-036APM",
        "meta_epoch": "2025-12-03T00:51:50.152032",
        "meta_mean_motion": 14.93482129,
        "meta_eccentricity": 0.00369334,
        "meta_inclination": 73.8945,
        "meta_ra_of_asc_node": 84.1864,
        "meta_arg_of_pericenter": 48.0359,
        "meta_mean_anomaly": 312.396,
        "meta_ephemeris_type": 0,
        "meta_classification_type": "U",
        "meta_norad_cat_id": 35670,
        "meta_element_set_no": 999,
        "meta_rev_at_epoch": 87582,
        "meta_bstar": 0.001906882,
        "meta_mean_motion_dot": 0.00020358,
        "meta_mean_motion_ddot": 0,
        "tle_line1": "1 35670U 93036APM 25337.03599713  .00020358  00000+0  19069-2 0  9993",
        "tle_line2": "2 35670  73.8945  84.1864 0036933  48.0359 312.3960 14.93482129875820"
      },
      "geometry": {
        "type": "Point",
        "coordinates": [
          -121.5135066994202,
          50.990933972169515
        ]
      }
    },
    {
      "type": "Feature",
      "properties": {
        "norad_id": 35671,
        "name": "COSMOS 2251 DEB",
        "group": "cosmos-2251-debris",
        "lat": -34.844965462462994,
        "lon": 81.56187405690122,
        "alt_km": 720.168475918761,
        "timestamp": "2025-12-05T09:41:19.528922+00:00",
        "meta_object_name": "COSMOS 2251 DEB",
        "meta_object_id": "1993-036APN",
        "meta_epoch": "2025-12-03T02:19:30.985824",
        "meta_mean_motion": 14.48319371,
        "meta_eccentricity": 0.00415489,
        "meta_inclination": 74.0174,
        "meta_ra_of_asc_node": 97.3946,
        "meta_arg_of_pericenter": 273.0899,
        "meta_mean_anomaly": 267.4122,
        "meta_ephemeris_type": 0,
        "meta_classification_type": "U",
        "meta_norad_cat_id": 35671,
        "meta_element_set_no": 999,
        "meta_rev_at_epoch": 86623,
        "meta_bstar": 0.0003210329,
        "meta_mean_motion_dot": 1.185e-05,
        "meta_mean_motion_ddot": 0,
        "tle_line1": "1 35671U 93036APN 25337.09688641  .00001185  00000+0  32103-3 0  9991",
        "tle_line2": "2 35671  74.0174  97.3946 0041548 273.0899 267.4122 14.48319371866235"
      },
      "geometry": {
        "type": "Point",
        "coordinates": [
          81.56187405690122,
          -34.844965462462994
        ]
      }
    },
    {
      "type": "Feature",
      "properties": {
        "norad_id": 35674,
        "name": "COSMOS 2251 DEB",
        "group": "cosmos-2251-debris",
        "lat": 44.94875563990481,
        "lon": -13.061854943435447,
        "alt_km": 649.5278760923966,
        "timestamp": "2025-12-05T09:41:19.528932+00:00",
        "meta_object_name": "COSMOS 2251 DEB",
        "meta_object_id": "1993-036APR",
        "meta_epoch": "2025-12-04T08:42:25.000704",
        "meta_mean_motion": 14.5399019,
        "meta_eccentricity": 0.00959981,
        "meta_inclination": 74.0595,
        "meta_ra_of_asc_node": 332.3254,
        "meta_arg_of_pericenter": 19.0839,
        "meta_mean_anomaly": 341.3879,
        "meta_ephemeris_type": 0,
        "meta_classification_type": "U",
        "meta_norad_cat_id": 35674,
        "meta_element_set_no": 999,
        "meta_rev_at_epoch": 85989,
        "meta_bstar": 0.0039523781,
        "meta_mean_motion_dot": 0.00017726,
        "meta_mean_motion_ddot": 0,
        "tle_line1": "1 35674U 93036APR 25338.36278936  .00017726  00000+0  39524-2 0  9998",
        "tle_line2": "2 35674  74.0595 332.3254 0095998  19.0839 341.3879 14.53990190859894"
      },
      "geometry": {
        "type": "Point",
        "coordinates": [
          -13.061854943435447,
          44.94875563990481
        ]
      }
    }
  ]
}